OBJECT_NAME,OBJECT_ID,EPOCH,MEAN_MOTION,ECCENTRICITY,INCLINATION,RA_OF_ASC_NODE,ARG_OF_PERICENTER,MEAN_ANOMALY,EPHEMERIS_TYPE,CLASSIFICATION_TYPE,NORAD_CAT_ID,ELEMENT_SET_NO,REV_AT_EPOCH,BSTAR,MEAN_MOTION_DOT,MEAN_MOTION_DDOT
INTELSAT 35E (IS-35E),2017-041A,2026-06-19T04:09:28.088064,1.00270762,.00020387,0.0194,13.3558,75.0828,206.8380,0,U,42818,999,3283,0,0,0
COSMOS 2520,2017-046A,2026-06-18T11:25:30.382176,1.00271321,.0001267,0.0475,93.6563,6.2150,23.1999,0,U,42907,999,3241,0,.131E-5,0
TDRS 13,2017-047A,2026-06-19T09:23:58.494336,1.00271772,.00145834,3.4523,2.8094,106.3881,287.9749,0,U,42915,999,3237,0,-.107E-5,0
QZS-3 (MICHIBIKI-3),2017-048A,2026-06-19T14:25:29.788608,1.00275041,.00019651,0.0626,165.8124,277.9302,167.4533,0,U,42917,999,3228,0,-.354E-5,0
AMAZONAS 5,2017-053A,2026-06-19T05:50:28.573728,1.00272726,.00020238,0.0317,326.5203,69.7821,257.7847,0,U,42934,999,3206,0,-.289E-5,0
ASIASAT 9,2017-057A,2026-06-19T15:10:03.150624,1.00262325,.00025923,0.0419,51.4620,23.9116,182.1544,0,U,42942,999,3188,0,0,0
INTELSAT 37E (IS-37E),2017-059A,2026-06-19T09:22:06.172608,1.00271073,.0002559,0.0180,15.8663,97.1818,277.1016,0,U,42950,999,3208,0,-.147E-5,0
BSAT-4A,2017-059B,2026-06-19T12:44:21.869952,1.00270469,.00040367,0.0338,352.2017,78.2173,138.2535,0,U,42951,999,3182,0,-.356E-5,0
QZS-4 (MICHIBIKI-4),2017-062A,2026-06-18T08:24:11.162016,1.00250086,.0745019,40.1070,343.4662,271.8091,274.2172,0,U,42965,999,3181,0,-.36E-5,0
SES-11 (ECHOSTAR 105),2017-063A,2026-06-19T12:22:40.109664,1.00270965,.00027805,0.0150,359.1618,74.8067,274.4821,0,U,42967,999,3174,0,-.95E-6,0
KOREASAT 5A,2017-067A,2026-06-19T13:24:51.952896,1.00269884,.00006876,0.0171,309.2900,129.3254,143.5213,0,U,42984,999,3155,0,-.364E-5,0
ALCOMSAT 1,2017-078A,2026-06-18T23:04:14.349216,1.00269156,.00023197,0.0275,266.5703,169.3599,152.4971,0,U,43039,999,3131,0,-.193E-5,0
SBIRS GEO-3 (USA 282),2018-009A,2026-06-18T19:00:20.498688,1.00272038,.00019101,2.1857,12.2091,65.3899,315.1084,0,U,43162,999,3086,0,.121E-5,0
AL YAH 3,2018-012A,2026-06-18T23:05:36.717792,1.00269821,.00039695,1.5575,83.0871,2.4989,147.8789,0,U,43174,999,3086,0,-.163E-5,0
SES-14,2018-012B,2026-06-18T12:41:47.320224,1.00275741,.0000856,0.0195,29.8723,72.0057,307.8305,0,U,43175,999,703,0,-.285E-5,0
GOES 17,2018-022A,2026-06-19T12:27:02.191104,1.00269516,.00005442,0.9441,85.6659,28.2288,251.0785,0,U,43226,999,3044,0,-.188E-5,0
HISPASAT 30W-6,2018-023A,2026-06-18T11:04:09.928128,1.00269727,.0005738,0.0456,42.9949,27.2662,332.4700,0,U,43228,999,3041,0,-.223E-5,0
SUPERBIRD-B3,2018-033A,2026-06-19T03:22:46.327008,1.00271787,.00010069,0.0116,32.3287,50.9428,36.7971,0,U,43271,999,3008,0,-.98E-6,0
HYLAS 4,2018-033B,2026-06-19T00:44:22.652736,1.00281832,.00015843,0.0176,22.6602,46.0859,176.0933,0,U,43272,999,3008,0,-.239E-5,0
IRNSS-1I,2018-035A,2026-06-15T20:09:20.172384,1.00272046,.00178117,28.7520,74.2167,181.5598,5.5147,0,U,43286,999,3006,0,.62E-6,0
USA 283,2018-036A,2026-06-15T11:59:15.199008,1.00267801,.0000468,0.0182,1.8047,172.3670,43.5385,0,U,43339,999,2527,0,0,0
COSMOS 2526,2018-037A,2026-06-19T15:11:33.006624,1.00273095,.00003898,0.0243,44.0796,154.4729,65.2517,0,U,43432,999,2998,0,-.35E-5,0
APSTAR-6C,2018-041A,2026-06-17T20:26:58.911936,1.00268661,.0000917,0.0269,17.8003,325.0673,3.9650,0,U,43450,999,2981,0,-.324E-5,0
BANGABANDHUSAT-1,2018-044A,2026-06-19T04:32:38.798880,1.00268866,.00017183,0.0329,88.1320,357.3428,9.1823,0,U,43463,999,2973,0,-.369E-5,0
SES-12,2018-049A,2026-06-19T08:11:38.422752,1.00270186,.00007924,0.0139,12.5107,286.3428,186.6206,0,U,43488,999,2944,0,-.275E-5,0
FENGYUN 2H,2018-050A,2026-06-19T14:57:56.811744,1.00269375,.00019375,3.0385,79.0443,138.1032,354.5707,0,U,43491,999,2946,0,-.136E-5,0
BEIDOU-2 IGSO-7,2018-057A,2026-06-18T21:59:22.457760,1.00250965,.0105215,55.1945,163.0418,238.0859,305.6783,0,U,43539,999,2914,0,-.38E-6,0
TELSTAR 19V,2018-059A,2026-06-18T10:54:40.837248,1.00274890,.0002571,0.0192,170.6171,297.8062,258.9345,0,U,43562,999,2915,0,-.286E-5,0
TELKOM 4 (MERAH PUTIH),2018-064A,2026-06-18T19:32:23.060256,1.00266997,.00014857,0.0163,0.6116,120.7343,186.7929,0,U,43587,999,2889,0,0,0
TELSTAR 18V,2018-069A,2026-06-19T12:27:10.785312,1.00269904,.00017405,0.0151,301.0454,144.9911,146.4865,0,U,43611,999,2866,0,-.3E-5,0
AZERSPACE 2 (IS-38),2018-074A,2026-06-18T21:41:31.668000,1.00273868,.0001499,0.0173,14.6973,84.9449,177.9809,0,U,43632,999,2846,0,.13E-5,0
HORIZONS-3E,2018-074B,2026-06-18T15:26:12.274368,1.00271097,.00007576,0.0047,132.2714,140.4157,34.7443,0,U,43633,999,2835,0,-.37E-6,0
